{
  "type": "FeatureCollection",
  "features": [
    {
      "type": "Feature",
      "properties": {
        "norad_id": 57400,
        "name": "TIANMU-1 08",
        "group": "weather",
        "lat": -18.18645527487564,
        "lon": 44.38281577816567,
        "alt_km": 486.1351625797706,
        "timestamp": "2025-12-18T10:51:25.431169+00:00",
        "meta_object_name": "TIANMU-1 08",
        "meta_object_id": "2023-101B",
        "meta_epoch": "2025-12-17T22:21:52.671168",
        "meta_mean_motion": 15.28127718,
        "meta_eccentricity": 0.00073452,
        "meta_inclination": 97.2863,
        "meta_ra_of_asc_node": 41.4647,
        "meta_arg_of_pericenter": 69.303,
        "meta_mean_anomaly": 290.8997,
        "meta_ephemeris_type": 0,
        "meta_classification_type": "U",
        "meta_norad_cat_id": 57400,
        "meta_element_set_no": 999,
        "meta_rev_at_epoch": 13394,
        "meta_bstar": 0.0002148318,
        "meta_mean_motion_dot": 5.822e-05,
        "meta_mean_motion_ddot": 0,
        "tle_line1": "1 57400U 23101B   25351.93185962  .00005822  00000+0  21483-3 0  9999",
        "tle_line2": "2 57400  97.2863  41.4647 0007345  69.3030 290.8997 15.28127718133945"
      },
      "geometry": {
        "type": "Point",
        "coordinates": [
          44.38281577816567,
          -18.18645527487564
        ]
      }
    },
    {
      "type": "Feature",
      "properties": {
        "norad_id": 57401,
        "name": "TIANMU-1 09",
        "group": "weather",
        "lat": 54.40805080882286,
        "lon": 31.19203491422798,
        "alt_km": 471.76413950171354,
        "timestamp": "2025-12-18T10:51:25.431179+00:00",
        "meta_object_name": "TIANMU-1 09",
        "meta_object_id": "2023-101C",
        "meta_epoch": "2025-12-17T23:36:59.382432",
        "meta_mean_motion": 15.2816091,
        "meta_eccentricity": 0.00066203,
        "meta_inclination": 97.2821,
        "meta_ra_of_asc_node": 41.0264,
        "meta_arg_of_pericenter": 69.5369,
        "meta_mean_anomaly": 290.6581,
        "meta_ephemeris_type": 0,
        "meta_classification_type": "U",
        "meta_norad_cat_id": 57401,
        "meta_element_set_no": 999,
        "meta_rev_at_epoch": 13395,
        "meta_bstar": 0.00022679499,
        "meta_mean_motion_dot": 6.156e-05,
        "meta_mean_motion_ddot": 0,
        "tle_line1": "1 57401U 23101C   25351.98402063  .00006156  00000+0  22679-3 0  9998",
        "tle_line2": "2 57401  97.2821  41.0264 0006620  69.5369 290.6581 15.28160910133952"
      },
      "geometry": {
        "type": "Point",
        "coordinates": [
          31.19203491422798,
          54.40805080882286
        ]
      }
    },
    {
      "type": "Feature",
      "properties": {
        "norad_id": 57402,
        "name": "TIANMU-1 10",
        "group": "weather",
        "lat": -46.52393824805059,
        "lon": -145.41954785289295,
        "alt_km": 493.5592396609436,
        "timestamp": "2025-12-18T10:51:25.431189+00:00",
        "meta_object_name": "TIANMU-1 10",
        "meta_object_id": "2023-101D",
        "meta_epoch": "2025-12-17T22:52:00.343200",
        "meta_mean_motion": 15.28151855,
        "meta_eccentricity": 0.00083561,
        "meta_inclination": 97.2901,
        "meta_ra_of_asc_node": 41.8511,
        "meta_arg_of_pericenter": 68.5094,
        "meta_mean_anomaly": 291.7036,
        "meta_ephemeris_type": 0,
        "meta_classification_type": "U",
        "meta_norad_cat_id": 57402,
        "meta_element_set_no": 999,
        "meta_rev_at_epoch": 13394,
        "meta_bstar": 0.00023820521,
        "meta_mean_motion_dot": 6.47e-05,
        "meta_mean_motion_ddot": 0,
        "tle_line1": "1 57402U 23101D   25351.95278175  .00006470  00000+0  23821-3 0  9990",
        "tle_line2": "2 57402  97.2901  41.8511 0008356  68.5094 291.7036 15.28151855133941"
      },
      "geometry": {
        "type": "Point",
        "coordinates": [
          -145.41954785289295,
          -46.52393824805059
        ]
      }
    },
    {
      "type": "Feature",
      "properties": {
        "norad_id": 57490,
        "name": "FENGYUN 3F",
        "group": "weather",
        "lat": 63.238672120810485,
        "lon": 42.960758342806415,
        "alt_km": 819.1372917709768,
        "timestamp": "2025-12-18T10:51:25.431199+00:00",
        "meta_object_name": "FENGYUN 3F",
        "meta_object_id": "2023-111A",
        "meta_epoch": "2025-12-17T22:42:55.484928",
        "meta_mean_motion": 14.19894898,
        "meta_eccentricity": 7.179e-05,
        "meta_inclination": 98.7078,
        "meta_ra_of_asc_node": 60.1557,
        "meta_arg_of_pericenter": 110.0592,
        "meta_mean_anomaly": 250.0662,
        "meta_ephemeris_type": 0,
        "meta_classification_type": "U",
        "meta_norad_cat_id": 57490,
        "meta_element_set_no": 999,
        "meta_rev_at_epoch": 12314,
        "meta_bstar": 5.2990904e-05,
        "meta_mean_motion_dot": 6.9e-07,
        "meta_mean_motion_ddot": 0,
        "tle_line1": "1 57490U 23111A   25351.94647552  .00000069  00000+0  52991-4 0  9995",
        "tle_line2": "2 57490  98.7078  60.1557 0000717 110.0592 250.0662 14.19894898123146"
      },
      "geometry": {
        "type": "Point",
        "coordinates": [
          42.960758342806415,
          63.238672120810485
        ]
      }
    },
    {
      "type": "Feature",
      "properties": {
        "norad_id": 58584,
        "name": "ARKTIKA-M 2",
        "group": "weather",
        "lat": 58.082439289540524,
        "lon": -131.53851937919148,
        "alt_km": 34865.459135304925,
        "timestamp": "2025-12-18T10:51:25.431214+00:00",
        "meta_object_name": "ARKTIKA-M 2",
        "meta_object_id": "2023-198A",
        "meta_epoch": "2025-12-15T07:41:54.278304",
        "meta_mean_motion": 2.00603484,
        "meta_eccentricity": 0.68650912,
        "meta_inclination": 63.2249,
        "meta_ra_of_asc_node": 174.6089,
        "meta_arg_of_pericenter": 268.096,
        "meta_mean_anomaly": 18.8351,
        "meta_ephemeris_type": 0,
        "meta_classification_type": "U",
        "meta_norad_cat_id": 58584,
        "meta_element_set_no": 999,
        "meta_rev_at_epoch": 1463,
        "meta_bstar": 0,
        "meta_mean_motion_dot": 2.02e-06,
        "meta_mean_motion_ddot": 0,
        "tle_line1": "1 58584U 23198A   25349.32076711  .00000202  00000+0  00000+0 0  9995",
        "tle_line2": "2 58584  63.2249 174.6089 6865091 268.0960  18.8351  2.00603484 14636"
      },
      "geometry": {
        "type": "Point",
        "coordinates": [
          -131.53851937919148,
          58.082439289540524
        ]
      }
    },
    {
      "type": "Feature",
      "properties": {
        "norad_id": 58645,
        "name": "TIANMU-1 11",
        "group": "weather",
        "lat": -25.316240288869096,
        "lon": 15.481188187552746,
        "alt_km": 493.9865798724768,
        "timestamp": "2025-12-18T10:51:25.431227+00:00",
        "meta_object_name": "TIANMU-1 11",
        "meta_object_id": "2023-205A",
        "meta_epoch": "2025-12-17T23:56:34.363680",
        "meta_mean_motion": 15.24663144,
        "meta_eccentricity": 0.00076207,
        "meta_inclination": 97.3599,
        "meta_ra_of_asc_node": 11.5289,
        "meta_arg_of_pericenter": 288.2199,
        "meta_mean_anomaly": 71.8209,
        "meta_ephemeris_type": 0,
        "meta_classification_type": "U",
        "meta_norad_cat_id": 58645,
        "meta_element_set_no": 999,
        "meta_rev_at_epoch": 10989,
        "meta_bstar": 0.00021427703,
        "meta_mean_motion_dot": 5.226e-05,
        "meta_mean_motion_ddot": 0,
        "tle_line1": "1 58645U 23205A   25351.99761995  .00005226  00000+0  21428-3 0  9995",
        "tle_line2": "2 58645  97.3599  11.5289 0007620 288.2199  71.8209 15.24663144109892"
      },
      "geometry": {
        "type": "Point",
        "coordinates": [
          15.481188187552746,
          -25.316240288869096
        ]
      }
    },
    {
      "type": "Feature",
      "properties": {
        "norad_id": 58646,
        "name": "TIANMU-1 12",
        "group": "weather",
        "lat": -4.355535426306797,
        "lon": -168.78471881506047,
        "alt_km": 495.20812902515263,
        "timestamp": "2025-12-18T10:51:25.431238+00:00",
        "meta_object_name": "TIANMU-1 12",
        "meta_object_id": "2023-205B",
        "meta_epoch": "2025-12-17T23:01:26.422176",
        "meta_mean_motion": 15.24547126,
        "meta_eccentricity": 0.00057661,
        "meta_inclination": 97.3588,
        "meta_ra_of_asc_node": 11.295,
        "meta_arg_of_pericenter": 267.7765,
        "meta_mean_anomaly": 92.2812,
        "meta_ephemeris_type": 0,
        "meta_classification_type": "U",
        "meta_norad_cat_id": 58646,
        "meta_element_set_no": 999,
        "meta_rev_at_epoch": 10987,
        "meta_bstar": 0.00021731014,
        "meta_mean_motion_dot": 5.281e-05,
        "meta_mean_motion_ddot": 0,
        "tle_line1": "1 58646U 23205B   25351.95933359  .00005281  00000+0  21731-3 0  9995",
        "tle_line2": "2 58646  97.3588  11.2950 0005766 267.7765  92.2812 15.24547126109879"
      },
      "geometry": {
        "type": "Point",
        "coordinates": [
          -168.78471881506047,
          -4.355535426306797
        ]
      }
    }
  ]
}